[{"OBJECT_NAME":"LEMUR-2-AMANDA-SVANTE","OBJECT_ID":"2021-034B","EPOCH":"2026-03-09T18:37:58.823328","MEAN_MOTION":15.28469003,"ECCENTRICITY":0.00027027,"INCLINATION":97.5829,"RA_OF_ASC_NODE":144.8625,"ARG_OF_PERICENTER":205.4721,"MEAN_ANOMALY":154.6385,"EPHEMERIS_TYPE":0,"CLASSIFICATION_TYPE":"U","NORAD_CAT_ID":48269,"ELEMENT_SET_NO":999,"REV_AT_EPOCH":26584,"BSTAR":0.0011134246,"MEAN_MOTION_DOT":0.00030872,"MEAN_MOTION_DDOT":0},{"OBJECT_NAME":"STARLINK-33933","OBJECT_ID":"2025-091K","EPOCH":"2026-03-09T23:04:51.703392","MEAN_MOTION":15.2757664,"ECCENTRICITY":7.156e-5,"INCLINATION":43,"RA_OF_ASC_NODE":44.0494,"ARG_OF_PERICENTER":244.8577,"MEAN_ANOMALY":115.22,"EPHEMERIS_TYPE":0,"CLASSIFICATION_TYPE":"U","NORAD_CAT_ID":63784,"ELEMENT_SET_NO":999,"REV_AT_EPOCH":4913,"BSTAR":0.00038943393,"MEAN_MOTION_DOT":0.00010469,"MEAN_MOTION_DDOT":0}]
